NORAD_CAT_ID,OBJECT_NAME,OBJECT_TYPE,EPOCH,MEAN_MOTION,ECCENTRICITY,INCLINATION,RA_OF_ASC_NODE,ARG_OF_PERICENTER,MEAN_ANOMALY,BSTAR,MEAN_MOTION_DOT,MEAN_MOTION_DDOT,TLE_LINE0,TLE_LINE1,TLE_LINE2,SEMIMAJOR_AXIS,PERIOD,APOGEE,PERIGEE,DECAYED
53005.0,STARLINK-4288,PAYLOAD,2023-09-12 07:35:23,15.08846322,0.0001445,53.2169,216.4568,95.9208,264.1949,9.3268e-05,1.197e-05,0.0,0 STARLINK-4288,1 53005U 22076V   23255.31623906  .00001197  00000-0  93268-4 0  9997,2 53005  53.2169 216.4568 0001445  95.9208 264.1949 15.08846322 66039,6917.861,95.437,540.726,538.726,0.0
53005.0,STARLINK-4288,PAYLOAD,2023-09-13 02:40:01,15.08842225,0.000145,53.2171,212.8879,93.1252,266.9906,7.6407e-05,9.28e-06,0.0,0 STARLINK-4288,1 53005U 22076V   23256.11112336  .00000928  00000-0  76407-4 0  9993,2 53005  53.2171 212.8879 0001450  93.1252 266.9906 15.08842225 66156,6917.874,95.437,540.742,538.735,0.0
53005.0,STARLINK-4288,PAYLOAD,2023-09-13 04:15:23,15.08848344,0.0001323,53.2164,212.5916,93.171,266.9433,0.00015199,2.132e-05,0.0,0 STARLINK-4288,1 53005U 22076V   23256.17735850  .00002132  00000-0  15199-3 0  9990,2 53005  53.2164 212.5916 0001323  93.1710 266.9433 15.08848344 66169,6917.855,95.437,540.635,538.805,0.0
53005.0,STARLINK-4288,PAYLOAD,2023-09-13 20:09:15,15.08838144,0.0001183,53.2158,209.6181,88.8213,271.2915,-1.1798e-05,-4.76e-06,0.0,0 STARLINK-4288,1 53005U 22076V   23256.83976381 -.00000476  00000-0 -11798-4 0  9992,2 53005  53.2158 209.6181 0001183  88.8213 271.2915 15.08838144 65795,6917.886,95.438,540.569,538.933,0.0
53005.0,STARLINK-4288,PAYLOAD,2023-09-14 02:30:48,15.0884008,0.0001183,53.2156,208.4297,89.2252,270.8876,1.8763e-05,1.1e-07,0.0,0 STARLINK-4288,1 53005U 22076V   23257.10472368  .00000011  00000-0  18763-4 0  9991,2 53005  53.2156 208.4297 0001183  89.2252 270.8876 15.08840080 66307,6917.88,95.438,540.564,538.927,0.0
53005.0,STARLINK-4288,PAYLOAD,2023-09-14 07:16:57,15.08842908,0.0001253,53.2161,207.5359,88.4021,271.7115,6.6056e-05,7.64e-06,0.0,0 STARLINK-4288,1 53005U 22076V   23257.30344180  .00000764  00000-0  66056-4 0  9996,2 53005  53.2161 207.5359 0001253  88.4021 271.7115 15.08842908 65862,6917.872,95.437,540.603,538.87,0.0
53005.0,STARLINK-4288,PAYLOAD,2023-09-15 03:56:58,15.08840052,0.0001293,53.216,203.668,86.0006,274.1134,-3.3483e-05,-8.21e-06,0.0,0 STARLINK-4288,1 53005U 22076V   23258.16456623 -.00000821  00000-0 -33483-4 0  9991,2 53005  53.2160 203.6680 0001293  86.0006 274.1134 15.08840052 66469,6917.88,95.438,540.64,538.851,0.0
53005.0,STARLINK-4288,PAYLOAD,2023-09-15 05:32:21,15.08839474,0.0001363,53.2157,203.3722,105.3851,254.7291,1.9103e-05,1.6e-07,0.0,0 STARLINK-4288,1 53005U 22076V   23258.23080698  .00000016  00000-0  19103-4 0  9991,2 53005  53.2157 203.3722 0001363 105.3851 254.7291 15.08839474 66004,6917.882,95.438,540.69,538.804,0.0
53005.0,STARLINK-4288,PAYLOAD,2023-09-16 06:58:31,15.088482,0.0001544,53.2167,198.6138,105.6527,254.4636,0.00024147,3.558e-05,0.0,0 STARLINK-4288,1 53005U 22076V   23259.29064485  .00003558  00000-0  24147-3 0  9991,2 53005  53.2167 198.6138 0001544 105.6527 254.4636 15.08848200 66632,6917.855,95.437,540.788,538.652,0.0
53005.0,STARLINK-4288,PAYLOAD,2023-09-17 02:03:09,15.08839646,0.0001349,53.2167,195.0457,98.3071,261.8074,9.0068e-05,1.146e-05,0.0,0 STARLINK-4288,1 53005U 22076V   23260.08553202  .00001146  00000-0  90068-4 0  9997,2 53005  53.2167 195.0457 0001349  98.3071 261.8074 15.08839646 66757,6917.881,95.438,540.68,538.813,0.0
53005.0,STARLINK-4288,PAYLOAD,2023-09-17 05:13:56,15.08841989,0.0001409,53.2169,194.4506,95.355,264.7603,0.00014024,1.945e-05,0.0,0 STARLINK-4288,1 53005U 22076V   23260.21801186  .00001945  00000-0  14024-3 0  9993,2 53005  53.2169 194.4506 0001409  95.3550 264.7603 15.08841989 66307,6917.874,95.437,540.714,538.765,0.0
53005.0,STARLINK-4288,PAYLOAD,2023-09-18 01:53:56,15.08858822,0.000142,53.2174,190.5846,107.9693,252.1454,0.00028987,4.331e-05,0.0,0 STARLINK-4288,1 53005U 22076V   23261.07912197  .00004331  00000-0  28987-3 0  9998,2 53005  53.2174 190.5846 0001420 107.9693 252.1454 15.08858822 66903,6917.823,95.436,540.67,538.706,0.0
53005.0,STARLINK-4288,PAYLOAD,2023-09-18 05:04:42,15.08859971,0.0001425,53.2169,189.9899,102.5745,257.5407,0.00043627,6.666e-05,0.0,0 STARLINK-4288,1 53005U 22076V   23261.21160216  .00006666  00000-0  43627-3 0  9992,2 53005  53.2169 189.9899 0001425 102.5745 257.5407 15.08859971 66454,6917.819,95.436,540.67,538.699,0.0
53005.0,STARLINK-4288,PAYLOAD,2023-09-19 01:44:43,15.08851591,0.0001365,53.217,186.1243,87.0869,273.0279,0.000316,4.746e-05,0.0,0 STARLINK-4288,1 53005U 22076V   23262.07272595  .00004746  00000-0  31600-3 0  9996,2 53005  53.2170 186.1243 0001365  87.0869 273.0279 15.08851591 67052,6917.845,95.437,540.654,538.766,0.0
53005.0,STARLINK-4288,PAYLOAD,2023-09-20 04:46:16,15.08855176,0.0001448,53.2168,181.0701,90.7391,269.3767,0.00069477,0.00010791,0.0,0 STARLINK-4288,1 53005U 22076V   23263.19880034  .00010791  00000-0  69477-3 0  9993,2 53005  53.2168 181.0701 0001448  90.7391 269.3767 15.08855176 67227,6917.834,95.437,540.701,538.697,0.0
53005.0,STARLINK-4288,PAYLOAD,2023-09-20 11:07:49,15.08827038,0.0002308,53.2166,179.8794,83.5605,276.5649,-0.00021995,-3.786e-05,0.0,0 STARLINK-4288,1 53005U 22076V   23263.46376966 -.00003786  00000-0 -21995-3 0  9998,2 53005  53.2166 179.8794 0002308  83.5605 276.5649 15.08827038 67265,6917.92,95.438,541.382,538.188,0.0
53005.0,STARLINK-4288,PAYLOAD,2023-09-20 22:15:32,15.08815047,0.0001179,53.2159,177.8027,111.791,248.3208,-0.00041649,-6.905e-05,0.0,0 STARLINK-4288,1 53005U 22076V   23263.92745453 -.00006905  00000-0 -41649-3 0  9994,2 53005  53.2159 177.8027 0001179 111.7910 248.3208 15.08815047 66862,6917.957,95.439,540.637,539.006,0.0
53005.0,STARLINK-4288,PAYLOAD,2023-09-21 04:37:04,15.08824343,0.0001435,53.2164,176.6117,121.8015,238.3117,-0.00027877,-4.72e-05,0.0,0 STARLINK-4288,1 53005U 22076V   23264.19241778 -.00004720  00000-0 -27877-3 0  9995,2 53005  53.2164 176.6117 0001435 121.8015 238.3117 15.08824343 66900,6917.928,95.439,540.786,538.801,0.0
53005.0,STARLINK-4288,PAYLOAD,2023-09-21 22:06:19,15.08840693,0.0001129,53.2169,173.3426,123.7609,236.349,0.00076659,0.00011934,0.0,0 STARLINK-4288,1 53005U 22076V   23264.92106190  .00011934  00000-0  76659-3 0  9999,2 53005  53.2169 173.3426 0001129 123.7609 236.3490 15.08840693 67013,6917.878,95.438,540.524,538.962,0.0
53005.0,STARLINK-4288,PAYLOAD,2023-09-22 02:52:28,15.08861456,8.36e-05,53.2161,172.4485,108.5404,251.5679,0.0014347,0.00022632,0.0,0 STARLINK-4288,1 53005U 22076V   23265.11977972  .00022632  00000-0  14347-2 0  9997,2 53005  53.2161 172.4485 0000836 108.5404 251.5679 15.08861456 67511,6917.815,95.436,540.258,539.101,0.0
53005.0,STARLINK-4288,PAYLOAD,2023-09-22 17:10:56,15.08857674,8.19e-05,53.2162,169.7737,112.0519,248.0561,0.00085023,0.00013276,0.0,0 STARLINK-4288,1 53005U 22076V   23265.71593670  .00013276  00000-0  85023-3 0  9996,2 53005  53.2162 169.7737 0000819 112.0519 248.0561 15.08857674 67607,6917.826,95.436,540.258,539.125,0.0
53005.0,STARLINK-4288,PAYLOAD,2023-09-22 21:57:06,15.08855569,8.95e-05,53.2164,168.8809,109.2463,250.8626,0.00043865,6.703e-05,0.0,0 STARLINK-4288,1 53005U 22076V   23265.91465586  .00006703  00000-0  43865-3 0  9997,2 53005  53.2164 168.8809 0000895 109.2463 250.8626 15.08855569 67164,6917.833,95.437,540.317,539.079,0.0
53005.0,STARLINK-4288,PAYLOAD,2023-09-23 02:43:15,15.08858843,8.55e-05,53.2159,167.9894,112.4911,247.6171,0.00051184,7.872e-05,0.0,0 STARLINK-4288,1 53005U 22076V   23266.11337344  .00007872  00000-0  51184-3 0  9991,2 53005  53.2159 167.9894 0000855 112.4911 247.6171 15.08858843 67664,6917.823,95.436,540.279,539.096,0.0
53005.0,STARLINK-4288,PAYLOAD,2023-09-24 02:34:02,15.08850366,0.0001012,53.2161,163.5273,84.8569,275.2539,0.00026341,3.908e-05,0.0,0 STARLINK-4288,1 53005U 22076V   23267.10697443  .00003908  00000-0  26341-3 0  9993,2 53005  53.2161 163.5273 0001012  84.8569 275.2539 15.08850366 67811,6917.849,95.437,540.414,539.014,0.0
53005.0,STARLINK-4288,PAYLOAD,2023-09-24 16:52:31,15.08835898,0.0001011,53.2154,160.8498,100.7772,259.3333,0.00012193,1.653e-05,0.0,0 STARLINK-4288,1 53005U 22076V   23267.70313730  .00001653  00000-0  12193-3 0  9998,2 53005  53.2154 160.8498 0001011 100.7772 259.3333 15.08835898 67903,6917.893,95.438,540.457,539.059,0.0
53005.0,STARLINK-4288,PAYLOAD,2023-09-24 21:38:40,15.08841615,0.0001055,53.2157,159.9597,84.0464,276.0648,0.00016609,2.357e-05,0.0,0 STARLINK-4288,1 53005U 22076V   23267.90185840  .00002357  00000-0  16609-3 0  9997,2 53005  53.2157 159.9597 0001055  84.0464 276.0648 15.08841615 67465,6917.875,95.437,540.47,539.011,0.0
53005.0,STARLINK-4288,PAYLOAD,2023-09-25 10:21:45,15.0885109,0.000104,53.2159,157.5788,97.324,262.787,0.00050325,7.733e-05,0.0,0 STARLINK-4288,1 53005U 22076V   23268.43177481  .00007733  00000-0  50325-3 0  9994,2 53005  53.2159 157.5788 0001040  97.3240 262.7870 15.08851090 67542,6917.846,95.437,540.431,538.992,0.0
53005.0,STARLINK-4288,PAYLOAD,2023-09-25 19:54:03,15.08854767,0.0001017,53.2159,155.7953,91.7056,268.4052,0.00039745,6.046e-05,0.0,0 STARLINK-4288,1 53005U 22076V   23268.82921259  .00006046  00000-0  39745-3 0  9996,2 53005  53.2159 155.7953 0001017  91.7056 268.4052 15.08854767 68071,6917.835,95.437,540.404,538.997,0.0
53005.0,STARLINK-4288,PAYLOAD,2023-09-25 21:29:27,15.08859383,0.0001185,53.2167,155.4989,92.054,268.0587,0.00050828,7.815e-05,0.0,0 STARLINK-4288,1 53005U 22076V   23268.89545141  .00007815  00000-0  50828-3 0  9995,2 53005  53.2167 155.4989 0001185  92.0540 268.0587 15.08859383 67611,6917.821,95.436,540.506,538.866,0.0
53005.0,STARLINK-4288,PAYLOAD,2023-09-25 23:04:50,15.08861994,0.0001222,53.2163,155.2002,93.3249,266.7883,0.00063352,9.815e-05,0.0,0 STARLINK-4288,1 53005U 22076V   23268.96169037  .00009815  00000-0  63352-3 0  9997,2 53005  53.2163 155.2002 0001222  93.3249 266.7883 15.08861994 67629,6917.813,95.436,540.524,538.833,0.0
